$$SOE
2461302.500000000, A.D. 2026-Sep-19 00:00:00.0000, -2.692152627570964E+08, 2.116713888438414E+08, 4.462507288990690E+07,
2461309.500000000, A.D. 2026-Sep-26 00:00:00.0000, -2.731824074664281E+08, 2.041148864845220E+08, 4.383056734042495E+07,
2461316.500000000, A.D. 2026-Oct-03 00:00:00.0000, -2.768233160523209E+08, 1.963147255850054E+08, 4.298369438904318E+07,
2461323.500000000, A.D. 2026-Oct-10 00:00:00.0000, -2.801285602944785E+08, 1.882766213596224E+08, 4.208467854179959E+07,
2461330.500000000, A.D. 2026-Oct-17 00:00:00.0000, -2.830882650548431E+08, 1.800063799812773E+08, 4.113373049877188E+07,
2461337.500000000, A.D. 2026-Oct-24 00:00:00.0000, -2.856920661505259E+08, 1.715099369933438E+08, 4.013104989178237E+07,
2461344.500000000, A.D. 2026-Oct-31 00:00:00.0000, -2.879290648887754E+08, 1.627933995184605E+08, 3.907682834798928E+07,
2461351.500000000, A.D. 2026-Nov-07 00:00:00.0000, -2.897877784934207E+08, 1.538630931238606E+08, 3.797125293604513E+07,
2461358.500000000, A.D. 2026-Nov-14 00:00:00.0000, -2.912560857515684E+08, 1.447256151559223E+08, 3.681451014746264E+07,
2461365.500000000, A.D. 2026-Nov-21 00:00:00.0000, -2.923211691825997E+08, 1.353878963225659E+08, 3.560679075480261E+07,
2461372.500000000, A.D. 2026-Nov-28 00:00:00.0000, -2.929694541785691E+08, 1.258572688276482E+08, 3.434829553902611E+07,
2461379.500000000, A.D. 2026-Dec-05 00:00:00.0000, -2.931865408946913E+08, 1.161415419775335E+08, 3.303924167942143E+07,
2461386.500000000, A.D. 2026-Dec-12 00:00:00.0000, -2.929571280699234E+08, 1.062490902582680E+08, 3.167987026392604E+07,
2461393.500000000, A.D. 2026-Dec-19 00:00:00.0000, -2.922649299856924E+08, 9.618895617064488E+07, 3.027045536502456E+07,
2461400.500000000, A.D. 2026-Dec-26 00:00:00.0000, -2.910925860082325E+08, 8.597096973993275E+07, 2.881131496201897E+07,
2461407.500000000, A.D. 2027-Jan-02 00:00:00.0000, -2.894215617337374E+08, 7.560588791282812E+07, 2.730282409086278E+07,
2461414.500000000, A.D. 2027-Jan-09 00:00:00.0000, -2.872320409476878E+08, 6.510555803611861E+07, 2.574543074118185E+07,
2461421.500000000, A.D. 2027-Jan-16 00:00:00.0000, -2.845028077834117E+08, 5.448311057382216E+07, 2.413967516333508E+07,
2461428.500000000, A.D. 2027-Jan-23 00:00:00.0000, -2.812111186280920E+08, 4.375318739744290E+07, 2.248621341840997E+07,
2461435.500000000, A.D. 2027-Jan-30 00:00:00.0000, -2.773325634881995E+08, 3.293221351214529E+07, 2.078584621651190E+07,
2461442.500000000, A.D. 2027-Feb-06 00:00:00.0000, -2.728409168217755E+08, 2.203872239761325E+07, 1.903955439542840E+07,
2461449.500000000, A.D. 2027-Feb-13 00:00:00.0000, -2.677079796259052E+08, 1.109374847251058E+07, 1.724854293641907E+07,
2461456.500000000, A.D. 2027-Feb-20 00:00:00.0000, -2.619034178924766E+08, 1.213013217578745E+05, 1.541429593691099E+07,
2461463.500000000, A.D. 2027-Feb-27 00:00:00.0000, -2.553946009584440E+08, -1.085106209189071E+07, 1.353864508585199E+07,
2461470.500000000, A.D. 2027-Mar-06 00:00:00.0000, -2.481464449454189E+08, -2.179154081949209E+07, 1.162385533530232E+07,
2461477.500000000, A.D. 2027-Mar-13 00:00:00.0000, -2.401212761182849E+08, -3.266323607120674E+07, 9.672733050577696E+06,
2461484.500000000, A.D. 2027-Mar-20 00:00:00.0000, -2.312787362317222E+08, -4.342310235870590E+07, 7.688763162359452E+06,
2461491.500000000, A.D. 2027-Mar-27 00:00:00.0000, -2.215757623958139E+08, -5.402065612095195E+07, 5.676283735515654E+06,
2461498.500000000, A.D. 2027-Apr-03 00:00:00.0000, -2.109666918979899E+08, -6.439638273604124E+07, 3.640708983374670E+06,
2461505.500000000, A.D. 2027-Apr-10 00:00:00.0000, -1.994035697221636E+08, -7.447977071636567E+07, 1.588815029916711E+06,
2461512.500000000, A.D. 2027-Apr-17 00:00:00.0000, -1.868367776434821E+08, -8.418689073106669E+07, -4.708933181931302E+05,
2461519.500000000, A.D. 2027-Apr-24 00:00:00.0000, -1.732161654341384E+08, -9.341743096118249E+07, -2.527712079356968E+06,
2461526.500000000, A.D. 2027-May-01 00:00:00.0000, -1.584929558339497E+08, -1.020511078488496E+08, -4.568136961262047E+06,
2461533.500000000, A.D. 2027-May-08 00:00:00.0000, -1.426228267193087E+08, -1.099434098078512E+08, -6.575102401223540E+06,
2461540.500000000, A.D. 2027-May-15 00:00:00.0000, -1.255707578330169E+08, -1.169207361128758E+08, -8.527035122102432E+06,
2461547.500000000, A.D. 2027-May-22 00:00:00.0000, -1.073184622379802E+08, -1.227752283244936E+08, -1.039671443818121E+07,
2461554.500000000, A.D. 2027-May-29 00:00:00.0000, -8.787546773547880E+07, -1.272600488005540E+08, -1.214997912296776E+07,
2461561.500000000, A.D. 2027-Jun-05 00:00:00.0000, -6.729506124393141E+07, -1.300866831042435E+08, -1.374442398083440E+07,
2461568.500000000, A.D. 2027-Jun-12 00:00:00.0000, -4.569604264435279E+07, -1.309271832660422E+08, -1.512842771228859E+07,
2461575.500000000, A.D. 2027-Jun-19 00:00:00.0000, -2.328992433130079E+07, -1.294260823567968E+08, -1.624117827119693E+07,
2461582.500000000, A.D. 2027-Jun-26 00:00:00.0000, -4.099219386828158E+05, -1.252283285658472E+08, -1.701477516186532E+07,
2461589.500000000, A.D. 2027-Jul-03 00:00:00.0000, 2.246785450865956E+07, -1.180289864156899E+08, -1.737975184204562E+07,
2461596.500000000, A.D. 2027-Jul-10 00:00:00.0000, 4.472766550331292E+07, -1.076440670468930E+08, -1.727490429347079E+07,
2461603.500000000, A.D. 2027-Jul-17 00:00:00.0000, 6.566036492714000E+07, -9.408725355484077E+07, -1.666043960133294E+07,
2461610.500000000, A.D. 2027-Jul-24 00:00:00.0000, 8.455797612019575E+07, -7.762021076827665E+07, -1.553037246253745E+07,
2461617.500000000, A.D. 2027-Jul-31 00:00:00.0000, 1.008329099774328E+08, -5.874211441604280E+07, -1.391810442009642E+07,
2461624.500000000, A.D. 2027-Aug-07 00:00:00.0000, 1.141138040493233E+08, -3.811069336000673E+07, -1.189131341419829E+07,
2461631.500000000, A.D. 2027-Aug-14 00:00:00.0000, 1.242780508606989E+08, -1.642675806601225E+07, -9.538155022260949E+06,
2461638.500000000, A.D. 2027-Aug-21 00:00:00.0000, 1.314184477058179E+08, 5.668970020903790E+06, -6.951265526285355E+06,
2461645.500000000, A.D. 2027-Aug-28 00:00:00.0000, 1.357735799536062E+08, 2.765589560752425E+07, -4.215502396121001E+06,
2461652.500000000, A.D. 2027-Sep-04 00:00:00.0000, 1.376559798029181E+08, 4.914918288696688E+07, -1.401595744931862E+06,
2461659.500000000, A.D. 2027-Sep-11 00:00:00.0000, 1.373974744454649E+08, 6.988668344824082E+07, 1.435284375910588E+06,
2461666.500000000, A.D. 2027-Sep-18 00:00:00.0000, 1.353156437227826E+08, 8.970404261497568E+07, 4.254111768556260E+06,
2461673.500000000, A.D. 2027-Sep-25 00:00:00.0000, 1.316972050493241E+08, 1.085088955824163E+08, 7.025469363888115E+06,
2461680.500000000, A.D. 2027-Oct-02 00:00:00.0000, 1.267923529456441E+08, 1.262590494964201E+08, 9.728913136886999E+06,
2461687.500000000, A.D. 2027-Oct-09 00:00:00.0000, 1.208151678864762E+08, 1.429458385472020E+08, 1.235068325309013E+07,
2461694.500000000, A.D. 2027-Oct-16 00:00:00.0000, 1.139468843750770E+08, 1.585821586903788E+08, 1.488188394668074E+07,
2461701.500000000, A.D. 2027-Oct-23 00:00:00.0000, 1.063401714099046E+08, 1.731941799689534E+08, 1.731710430553328E+07,
2461708.500000000, A.D. 2027-Oct-30 00:00:00.0000, 9.812347263755006E+07, 1.868157494745756E+08, 1.965340161193012E+07,
2461715.500000000, A.D. 2027-Nov-06 00:00:00.0000, 8.940497308551428E+07, 1.994846855525390E+08, 2.188956389757513E+07,
2461722.500000000, A.D. 2027-Nov-13 00:00:00.0000, 8.027603766253406E+07, 2.112403672085515E+08, 2.402557988588798E+07,
2461729.500000000, A.D. 2027-Nov-20 00:00:00.0000, 7.081410944112639E+07, 2.221221960845678E+08, 2.606225955128969E+07,
2461736.500000000, A.D. 2027-Nov-27 00:00:00.0000, 6.108511540009771E+07, 2.321686438983982E+08, 2.800096321696322E+07,
2461743.500000000, A.D. 2027-Dec-04 00:00:00.0000, 5.114544484245520E+07, 2.414166890497375E+08, 2.984340865505108E+07,
2461750.500000000, A.D. 2027-Dec-11 00:00:00.0000, 4.104356935512349E+07, 2.499015085378882E+08, 3.159153398100847E+07,
2461757.500000000, A.D. 2027-Dec-18 00:00:00.0000, 3.082136794568845E+07, 2.576563357539470E+08, 3.324740042432623E+07,
2461764.500000000, A.D. 2027-Dec-25 00:00:00.0000, 2.051521199775132E+07, 2.647124246260132E+08, 3.481312365641932E+07,
2461771.500000000, A.D. 2028-Jan-01 00:00:00.0000, 1.015685548007397E+07, 2.710990805002298E+08, 3.629082562647706E+07,
$$EOE